     2.100          NAVIGATION                              RINEX VERSION / TYPE
fic2rin                                 12/30/2012 00:12:54 PGM / RUN BY / DATE
                                                            END OF HEADER
24 12 12 29  7 59 44.0  .156369060278D-05 -.568434188608D-12  .000000000000D+00
     .300000000000D+02  .930625000000D+02  .472733976982D-08  .149199967646D+00
     .482611358166D-05  .413478468545D-03  .304356217384D-05  .515371243095D+04
     .547184000000D+06 -.558793544769D-08 -.185986741051D+01 -.372529029846D-08
     .959221574629D+00  .320875000000D+03 -.179148000016D+00 -.834213319762D-08
     .297155234851D-09  .100000000000D+01  .172000000000D+04  .000000000000D+00
     .240000000000D+01  .000000000000D+00  .419095158577D-08  .300000000000D+02
     .540006000000D+06  .400000000000D+01
30 12 12 29  7 59 44.0 -.269260257483D-03  .131876731757D-10  .000000000000D+00
     .810000000000D+02 -.889375000000D+02  .474984070707D-08  .161288015555D+01
    -.480748713017D-05  .108626366127D-01  .219978392124D-05  .515360382462D+04
     .547184000000D+06  .502914190292D-07 -.905000294929D+00 -.294297933578D-06
     .962279478643D+00  .338906250000D+03  .161109242138D+01 -.831177479021D-08
    -.192865176466D-09  .100000000000D+01  .172000000000D+04  .000000000000D+00
     .340000000000D+01  .000000000000D+00 -.465661287308D-08  .810000000000D+02
     .540006000000D+06  .400000000000D+01
 1 12 12 29  8  0  0.0  .290179159492D-03  .216004991671D-11  .000000000000D+00
     .570000000000D+02  .231562500000D+02  .480341436720D-08 -.695298027828D+00
     .109523534775D-05  .151858956087D-02  .668503344059D-05  .515370156479D+04
     .547200000000D+06  .577419996262D-07  .128881803900D+01  .428408384323D-07
     .959737911565D+00  .250562500000D+03  .502576594035D+00 -.808390815579D-08
     .367158150754D-09  .100000000000D+01  .172000000000D+04  .000000000000D+00
     .240000000000D+01  .000000000000D+00  .838190317154D-08  .570000000000D+02
     .540006000000D+06  .400000000000D+01
 2 12 12 29  8  0  0.0  .412983354181D-03  .125055521494D-11  .000000000000D+00
     .550000000000D+02  .241875000000D+02  .540629662253D-08  .296513932527D+00
     .133924186230D-05  .118018571520D-01  .636838376522D-05  .515357490158D+04
     .547200000000D+06  .117346644402D-06  .127040934352D+01  .163912773132D-06
     .938271344253D+00  .245218750000D+03 -.270020324752D+01 -.851785480284D-08
     .343942898031D-09  .100000000000D+01  .172000000000D+04  .000000000000D+00
     .240000000000D+01  .000000000000D+00 -.176951289177D-07  .550000000000D+02
     .540006000000D+06  .400000000000D+01
 4 12 12 29  8  0  0.0  .891350209713D-04  .111413100967D-10  .000000000000D+00
     .101000000000D+03  .253437500000D+02  .526771942166D-08 -.271033897302D+01
     .126473605633D-05  .104112450499D-01  .643543899059D-05  .515371245003D+04
     .547200000000D+06  .149011611938D-06  .128702605360D+01 -.126659870148D-06
     .937302968557D+00  .242343750000D+03  .948593893178D+00 -.818034074403D-08
     .468590947265D-09  .100000000000D+01  .172000000000D+04  .000000000000D+00
     .340000000000D+01  .000000000000D+00 -.651925802231D-08  .101000000000D+03
     .540006000000D+06  .400000000000D+01
 5 12 12 29  8  0  0.0 -.375565607101D-03 -.216004991671D-11  .000000000000D+00
     .780000000000D+02 -.240625000000D+02  .501592321905D-08  .233931387262D+01
    -.126846134663D-05  .316180940717D-02  .653043389320D-05  .515380606461D+04
     .547200000000D+06 -.558793544769D-08  .233525432177D+01 -.111758708954D-07
     .949324540298D+00  .250031250000D+03  .309518895356D+00 -.817926927082D-08
    -.506806824824D-09  .100000000000D+01  .172000000000D+04  .000000000000D+00
     .240000000000D+01  .000000000000D+00 -.102445483208D-07  .780000000000D+02
     .540006000000D+06  .400000000000D+01
 6 12 12 29  8  0  0.0  .407737679780D-03 -.134150468512D-10  .000000000000D+00
     .190000000000D+02 -.804375000000D+02  .473591155544D-08  .235938415485D+01
    -.401027500629D-05  .754464860074D-02  .109802931547D-04  .515369456291D+04
     .547200000000D+06  .316649675369D-07  .181603222743D+00  .178813934326D-06
     .940247917740D+00  .154812500000D+03 -.399570542506D+00 -.796747473445D-08
     .850035407387D-10  .100000000000D+01  .172000000000D+04  .000000000000D+00
     .240000000000D+01  .000000000000D+00 -.512227416039D-08  .190000000000D+02
     .540006000000D+06  .400000000000D+01
 7 12 12 29  8  0  0.0  .162638258189D-03  .443378667114D-11  .000000000000D+00
     .800000000000D+02  .996562500000D+02  .435339562212D-08 -.109379326118D+01
     .511482357979D-05  .605139741674D-02  .243075191975D-05  .515371284103D+04
     .547200000000D+06  .912696123123D-07 -.183382417567D+01 -.931322574615D-07
     .975606387316D+00  .338062500000D+03 -.292136077175D+01 -.822427114533D-08
     .393944980818D-09  .100000000000D+01  .172000000000D+04  .000000000000D+00
     .240000000000D+01  .000000000000D+00 -.111758708954D-07  .800000000000D+02
     .540006000000D+06  .400000000000D+01
 8 12 12 29  8  0  0.0  .369502231479D-05  .113686837722D-12  .000000000000D+00
     .840000000000D+02  .826562500000D+02  .391944897507D-08 -.168690413805D+01
     .401772558689D-05  .127110712929D-01  .210106372833D-05  .515361603355D+04
     .547200000000D+06  .633299350739D-07 -.174578786056D+01 -.171363353729D-06
     .998055176844D+00  .358343750000D+03 -.288719639589D+01 -.796711757671D-08
     .489306095849D-09  .100000000000D+01  .172000000000D+04  .000000000000D+00
     .485000000000D+01  .000000000000D+00 -.419095158577D-08  .840000000000D+02
     .540006000000D+06  .400000000000D+01
 9 12 12 29  8  0  0.0  .209916383028D-03  .261479726760D-11  .000000000000D+00
     .490000000000D+02  .955312500000D+02  .422267589140D-08 -.134523959870D+01
     .535510480404D-05  .170495569473D-01  .349432229996D-05  .515283666420D+04
     .547200000000D+06 -.199303030968D-06 -.185804994692D+01  .370666384697D-06
     .984290053986D+00  .330656250000D+03  .163546874007D+01 -.819498421113D-08
     .318227541169D-09  .100000000000D+01  .172000000000D+04  .000000000000D+00
     .240000000000D+01  .000000000000D+00 -.558793544769D-08  .490000000000D+02
     .540006000000D+06  .400000000000D+01
11 12 12 29  8  0  0.0 -.338088255376D-03 -.375166564481D-11  .000000000000D+00
     .100000000000D+02  .332500000000D+02  .640383817414D-08 -.893252562435D+00
     .185705721378D-05  .138057243312D-01  .789947807789D-05  .515367914772D+04
     .547200000000D+06 -.335276126862D-07  .100283152391D+01  .331550836563D-06
     .888362621240D+00  .187937500000D+03  .113485472378D+01 -.901644699978D-08
     .480734310228D-09  .100000000000D+01  .172000000000D+04  .000000000000D+00
     .240000000000D+01  .000000000000D+00 -.116415321827D-07  .100000000000D+02
     .540006000000D+06  .400000000000D+01
12 12 12 29  8  0  0.0  .109435990453D-03  .204636307899D-11  .000000000000D+00
     .780000000000D+02 -.100531250000D+03  .426767776591D-08 -.136978801214D+01
    -.518374145031D-05  .412976904772D-02  .327639281750D-05  .515365088081D+04
     .547200000000D+06  .540167093277D-07 -.775550840485D+00 -.782310962677D-07
     .982415914023D+00  .329218750000D+03  .138322141832D+00 -.808390815579D-08
    -.169649923743D-09  .100000000000D+01  .172000000000D+04  .000000000000D+00
     .240000000000D+01  .000000000000D+00 -.121071934700D-07  .780000000000D+02
     .540006000000D+06  .400000000000D+01
13 12 12 29  8  0  0.0  .156597699970D-03 -.284217094304D-11  .000000000000D+00
     .500000000000D+02  .967187500000D+02  .358657796680D-08  .133038872730D+01
     .499002635479D-05  .486112665385D-02  .112764537334D-04  .515358244896D+04
     .547200000000D+06  .102445483208D-06 -.280213045109D+01 -.856816768646D-07
     .983717997426D+00  .172406250000D+03  .206957973810D+01 -.750388399546D-08
    -.460733477113D-10  .100000000000D+01  .172000000000D+04  .000000000000D+00
     .240000000000D+01  .000000000000D+00 -.111758708954D-07  .500000000000D+02
     .540006000000D+06  .400000000000D+01
14 12 12 29  8  0  0.0  .218904577196D-03  .454747350886D-12  .000000000000D+00
     .570000000000D+02  .787187500000D+02  .377944314326D-08  .149496179884D+01
     .414066016674D-05  .674169533886D-02  .106133520603D-04  .515369662094D+04
     .547200000000D+06 -.160187482834D-06 -.283031437688D+01 -.596046447754D-07
     .976457394558D+00  .180718750000D+03 -.201707765632D+01 -.765853329437D-08
    -.678599694973D-10  .100000000000D+01  .172000000000D+04  .000000000000D+00
     .240000000000D+01  .000000000000D+00 -.884756445885D-08  .570000000000D+02
     .540006000000D+06  .400000000000D+01
15 12 12 29  8  0  0.0 -.103557482362D-03 -.113686837722D-11  .000000000000D+00
     .240000000000D+02  .664062500000D+02  .455733268834D-08  .105736069667D+01
     .356137752533D-05  .516191404313D-02  .107120722532D-04  .515369526672D+04
     .547200000000D+06 -.111758708954D-07 -.292517670579D+01  .121071934700D-06
     .943152083693D+00  .162250000000D+03  .940064340539D-01 -.793533053837D-08
    -.231795369493D-09  .100000000000D+01  .172000000000D+04  .000000000000D+00
     .240000000000D+01  .000000000000D+00 -.102445483208D-07  .240000000000D+02
     .540006000000D+06  .400000000000D+01
16 12 12 29  8  0  0.0 -.251308083534D-03 -.341060513165D-12  .000000000000D+00
     .450000000000D+02 -.108062500000D+03  .421517557898D-08  .265577435669D+01
    -.550411641598D-05  .676991522778D-02  .375322997570D-05  .515355660057D+04
     .547200000000D+06 -.193715095520D-06 -.757250428737D+00  .428408384323D-07
     .983176571445D+00  .320468750000D+03  .277945759957D-01 -.798640409436D-08
    -.253224833545D-09  .100000000000D+01  .172000000000D+04  .000000000000D+00
     .240000000000D+01  .000000000000D+00 -.977888703346D-08  .450000000000D+02
     .540006000000D+06  .400000000000D+01
